{
  "norad_id": 65597,
  "name": "STARLINK-35263",
  "history": [
    {
      "epoch": "2026-03-28T21:54:03.208896Z",
      "apogee_km": 549.9017044923739,
      "perigee_km": 549.0996226036896,
      "latitude_deg": 4.559441282146081e-06,
      "longitude_deg": 2.7702554156263326,
      "height_km": 552.7460357694708,
      "semi_major_axis_km": 6927.637663548032,
      "eccentricity": 5.789e-05,
      "inclination_deg": 97.6027,
      "raan_deg": 157.6098,
      "arg_perigee_deg": 116.8212,
      "mean_anomaly_deg": 243.3074,
      "mean_motion_rev_day": 15.0565342
    },
    {
      "epoch": "2026-03-29T04:16:51.028032Z",
      "apogee_km": 549.8841420471654,
      "perigee_km": 549.066683782441,
      "latitude_deg": -1.8175322922741147e-05,
      "longitude_deg": -92.92900313606894,
      "height_km": 552.7556750340015,
      "semi_major_axis_km": 6927.612412914803,
      "eccentricity": 5.9e-05,
      "inclination_deg": 97.6032,
      "raan_deg": 157.8718,
      "arg_perigee_deg": 121.8708,
      "mean_anomaly_deg": 238.2576,
      "mean_motion_rev_day": 15.05661652
    },
    {
      "epoch": "2026-03-30T02:36:40.695840Z",
      "apogee_km": 549.9734326253692,
      "perigee_km": 549.2406158624844,
      "latitude_deg": 1.8972624649896045e-05,
      "longitude_deg": -67.88803626449928,
      "height_km": 552.7757090950329,
      "semi_major_axis_km": 6927.744024243926,
      "eccentricity": 5.289e-05,
      "inclination_deg": 97.6038,
      "raan_deg": 158.7868,
      "arg_perigee_deg": 106.5461,
      "mean_anomaly_deg": 253.5824,
      "mean_motion_rev_day": 15.05618746
    },
    {
      "epoch": "2026-03-30T10:35:10.864608Z",
      "apogee_km": 550.0594350470701,
      "perigee_km": 549.0033812749307,
      "latitude_deg": -7.616828891412331e-06,
      "longitude_deg": 172.48724091223258,
      "height_km": 552.8029444009625,
      "semi_major_axis_km": 6927.668408161,
      "eccentricity": 7.622e-05,
      "inclination_deg": 97.6028,
      "raan_deg": 159.1153,
      "arg_perigee_deg": 113.1295,
      "mean_anomaly_deg": 247.0012,
      "mean_motion_rev_day": 15.05643397
    },
    {
      "epoch": "2026-03-30T21:45:05.227200Z",
      "apogee_km": 550.1408913414043,
      "perigee_km": 548.8461172001562,
      "latitude_deg": 1.849784004100604e-05,
      "longitude_deg": 5.011092790264469,
      "height_km": 552.710037763466,
      "semi_major_axis_km": 6927.63050427078,
      "eccentricity": 9.345e-05,
      "inclination_deg": 97.6019,
      "raan_deg": 159.5742,
      "arg_perigee_deg": 103.6443,
      "mean_anomaly_deg": 256.4888,
      "mean_motion_rev_day": 15.05655754
    },
    {
      "epoch": "2026-03-31T10:30:40.959648Z",
      "apogee_km": 550.1381200770247,
      "perigee_km": 548.7920869883092,
      "latitude_deg": 8.413990041006395e-05,
      "longitude_deg": 173.61206807421894,
      "height_km": 552.7271399887344,
      "semi_major_axis_km": 6927.602103532667,
      "eccentricity": 9.715e-05,
      "inclination_deg": 97.6015,
      "raan_deg": 160.0981,
      "arg_perigee_deg": 107.1295,
      "mean_anomaly_deg": 253.0039,
      "mean_motion_rev_day": 15.05665013
    },
    {
      "epoch": "2026-04-01T10:26:09.735360Z",
      "apogee_km": 550.0824127433589,
      "perigee_km": 548.786956838303,
      "latitude_deg": 1.4372051337548056e-05,
      "longitude_deg": 174.74222898979798,
      "height_km": 552.7134510669775,
      "semi_major_axis_km": 6927.571684790831,
      "eccentricity": 9.35e-05,
      "inclination_deg": 97.6015,
      "raan_deg": 161.0807,
      "arg_perigee_deg": 109.3722,
      "mean_anomaly_deg": 250.7606,
      "mean_motion_rev_day": 15.0567493
    }
  ]
}